NORAD_CAT_ID,OBJECT_NAME,OBJECT_TYPE,EPOCH,MEAN_MOTION,ECCENTRICITY,INCLINATION,RA_OF_ASC_NODE,ARG_OF_PERICENTER,MEAN_ANOMALY,BSTAR,MEAN_MOTION_DOT,MEAN_MOTION_DDOT,TLE_LINE0,TLE_LINE1,TLE_LINE2,SEMIMAJOR_AXIS,PERIOD,APOGEE,PERIGEE,DECAYED
53576.0,STARLINK-4581,PAYLOAD,2022-09-02 14:00:01,15.73203953,0.0001391,53.2177,86.4315,54.5089,135.1524,1.4404e-05,1.402e-05,0.0,0 STARLINK-4581,1 53576U 22101BB  22245.58334491  .00001402  00000-0  14404-4 0  9998,2 53576  53.2177  86.4315 0001391  54.5089 135.1524 15.73203953  1308,6727.884,91.533,350.685,348.81300000000016,0.0
53576.0,STARLINK-4581,PAYLOAD,2022-09-02 22:00:01,15.73246674,0.0001481,53.2156,84.7875,48.8959,229.7602,7.672e-05,0.00010181,0.0,0 STARLINK-4581,1 53576U 22101BB  22245.91668981  .00010181  00000-0  76720-4 0  9992,2 53576  53.2156  84.7875 0001481  48.8959 229.7602 15.73246674  1303,6727.762,91.53,350.62300000000016,348.631,0.0
53576.0,STARLINK-4581,PAYLOAD,2022-09-03 04:00:00,15.73278243,0.0001465,53.2151,83.5494,50.9319,204.3969,-0.00062501,-0.00087721,0.0,0 STARLINK-4581,1 53576U 22101BB  22246.16667824 -.00087721  00000-0 -62501-3 0  9992,2 53576  53.2151  83.5494 0001465  50.9319 204.3969 15.73278243  2288,6727.672,91.529,350.523,348.552,0.0
53576.0,STARLINK-4581,PAYLOAD,2022-09-03 14:00:01,15.73271533,0.0001379,53.2158,81.4864,60.3073,36.2361,-0.00030483,-0.00043313,0.0,0 STARLINK-4581,1 53576U 22101BB  22246.58334491 -.00043313  00000-0 -30483-3 0  9992,2 53576  53.2158  81.4864 0001379  60.3073  36.2361 15.73271533  2350,6727.691,91.529,350.4840000000001,348.62800000000016,0.0
53576.0,STARLINK-4581,PAYLOAD,2022-09-03 22:00:00,15.73229943,0.0001482,53.216,79.8388,46.6645,138.8964,-0.00019474,-0.00027896,0.0,0 STARLINK-4581,1 53576U 22101BB  22246.91667824 -.00027896  00000-0 -19474-3 0  9993,2 53576  53.2160  79.8388 0001482  46.6645 138.8964 15.73229943  1302,6727.81,91.531,350.672,348.67800000000005,0.0
53576.0,STARLINK-4581,PAYLOAD,2022-09-04 12:00:00,15.73203565,0.0001369,53.2175,76.9462,53.1838,197.8501,1.3352e-05,1.254e-05,0.0,0 STARLINK-4581,1 53576U 22101BB  22247.50001157  .00001254  00000-0  13352-4 0  9998,2 53576  53.2175  76.9462 0001369  53.1838 197.8501 15.73203565  2495,6727.885,91.533,350.671,348.829,0.0
53576.0,STARLINK-4581,PAYLOAD,2022-09-04 14:00:01,15.73208322,0.0001125999999999,53.216,76.5379,41.4693,322.0309,-0.00012794,-0.00018542,0.0,0 STARLINK-4581,1 53576U 22101BB  22247.58335648 -.00018542  00000-0 -12794-3 0  9999,2 53576  53.2160  76.5379 0001126  41.4693 322.0309 15.73208322  1305,6727.871,91.533,350.494,348.97900000000016,0.0
53576.0,STARLINK-4581,PAYLOAD,2022-09-04 16:00:00,15.73227809,0.0001171999999999,53.2159,76.1262,38.1292,77.5329,-0.00049826,-0.00070049,0.0,0 STARLINK-4581,1 53576U 22101BB  22247.66667824 -.00070049  00000-0 -49826-3 0  9998,2 53576  53.2159  76.1262 0001172  38.1292  77.5329 15.73227809  2529,6727.816,91.532,350.469,348.892,0.0
53576.0,STARLINK-4581,PAYLOAD,2022-09-04 20:00:01,15.731831,0.0001264,53.2156,75.3025,33.0062,307.1333,-3.0635e-05,-4.913e-05,0.0,0 STARLINK-4581,1 53576U 22101BB  22247.83334491 -.00004913  00000-0 -30635-4 0  9994,2 53576  53.2156  75.3025 0001264  33.0062 307.1333 15.73183100  1302,6727.943,91.534,350.659,348.958,0.0
53576.0,STARLINK-4581,PAYLOAD,2022-09-05 04:00:00,15.7321858,0.0001193,53.2151,73.6522,28.7584,40.2968,0.00025912,0.0003593,0.0,0 STARLINK-4581,1 53576U 22101BB  22248.16667824  .00035930  00000-0  25912-3 0  9992,2 53576  53.2151  73.6522 0001193  28.7584  40.2968 15.73218580  2605,6727.842,91.532,350.51,348.905,0.0
53576.0,STARLINK-4581,PAYLOAD,2022-09-05 12:00:00,15.73261482,0.0001173,53.2154,72.0015,43.463,114.5339,-0.0006942999999999,-0.00097195,0.0,0 STARLINK-4581,1 53576U 22101BB  22248.50001157 -.00097195  00000-0 -69430-3 0  9997,2 53576  53.2154  72.0015 0001173  43.4630 114.5339 15.73261482  2653,6727.72,91.53,350.374,348.796,0.0
53576.0,STARLINK-4581,PAYLOAD,2022-09-05 14:00:01,15.73259025,0.0001200999999999,53.2156,71.5896,43.4081,226.8388,-0.00085224,-0.00118849,0.0,0 STARLINK-4581,1 53576U 22101BB  22248.58334491 -.00118849  00000-0 -85224-3 0  9994,2 53576  53.2156  71.5896 0001201  43.4081 226.8388 15.73259025  1300,6727.727,91.53,350.4,348.784,0.0
53576.0,STARLINK-4581,PAYLOAD,2022-09-05 20:00:01,15.73178042,0.0001482,53.2155,70.3541,39.2923,207.6811,-0.00046488,-0.00065299,0.0,0 STARLINK-4581,1 53576U 22101BB  22248.83334491 -.00065299  00000-0 -46488-3 0  9991,2 53576  53.2155  70.3541 0001482  39.2923 207.6811 15.73178042  1309,6727.958000000001,91.534,350.82,348.826,0.0
53576.0,STARLINK-4581,PAYLOAD,2022-09-06 04:00:00,15.73142574,0.0001371,53.2156,68.7036,34.9662,300.8773,0.00017652,0.00024164,0.0,0 STARLINK-4581,1 53576U 22101BB  22249.16667824  .00024164  00000-0  17652-3 0  9992,2 53576  53.2156  68.7036 0001371  34.9662 300.8773 15.73142574  2753,6728.059,91.537,350.846,349.001,0.0
53576.0,STARLINK-4581,PAYLOAD,2022-09-06 12:00:00,15.73163654,0.0001364,53.2156,67.0532,44.0257,20.6774,-0.00025444,-0.0003612,0.0,0 STARLINK-4581,1 53576U 22101BB  22249.50001157 -.00036120  00000-0 -25444-3 0  9996,2 53576  53.2156  67.0532 0001364  44.0257  20.6774 15.73163654  2817,6727.999,91.535,350.781,348.946,0.0
53576.0,STARLINK-4581,PAYLOAD,2022-09-06 14:00:01,15.73133883,0.0001439,53.2156,66.6413,42.1803,134.7542,0.00033286,0.0004622,0.0,0 STARLINK-4581,1 53576U 22101BB  22249.58334491  .00046220  00000-0  33286-3 0  9997,2 53576  53.2156  66.6413 0001439  42.1803 134.7542 15.73133883  1303,6728.084,91.537,350.917,348.981,0.0
53576.0,STARLINK-4581,PAYLOAD,2022-09-06 20:00:01,15.73174259,0.0001682,53.2152,65.4058,40.1875,113.3872,0.00019436,0.00026714,0.0,0 STARLINK-4581,1 53576U 22101BB  22249.83334491  .00026714  00000-0  19436-3 0  9992,2 53576  53.2152  65.4058 0001682  40.1875 113.3872 15.73174259  2861,6727.969,91.535,350.965,348.702,0.0
53576.0,STARLINK-4581,PAYLOAD,2022-09-06 22:00:00,15.73181735,0.0001696999999999,53.2151,64.9937,38.0032,227.7899,9.2403e-05,0.00012357,0.0,0 STARLINK-4581,1 53576U 22101BB  22249.91667824  .00012357  00000-0  92403-4 0  9994,2 53576  53.2151  64.9937 0001697  38.0032 227.7899 15.73181735  1301,6727.946999999999,91.534,350.954,348.671,0.0
53576.0,STARLINK-4581,PAYLOAD,2022-09-07 14:00:01,15.73242824,0.0001508,53.215,61.6928,43.3529,40.2706,0.00015776,0.00021618,0.0,0 STARLINK-4581,1 53576U 22101BB  22250.58334491  .00021618  00000-0  15776-3 0  9997,2 53576  53.2150  61.6928 0001508  43.3529  40.2706 15.73242824  1307,6727.773,91.531,350.653,348.624,0.0
53576.0,STARLINK-4581,PAYLOAD,2022-09-07 22:00:00,15.73213214,0.0001644,53.2151,60.0448,32.238,140.3559,0.00022768,0.00031471,0.0,0 STARLINK-4581,1 53576U 22101BB  22250.91667824  .00031471  00000-0  22768-3 0  9990,2 53576  53.2151  60.0448 0001644  32.2380 140.3559 15.73213214  3032,6727.858,91.532,350.829,348.616,0.0
53576.0,STARLINK-4581,PAYLOAD,2022-09-08 04:00:00,15.73255175,0.0001584,53.2152,58.806,33.8574,115.4457,-0.00063282,-0.00088713,0.0,0 STARLINK-4581,1 53576U 22101BB  22251.16667824 -.00088713  00000-0 -63282-3 0  9997,2 53576  53.2152  58.8060 0001584  33.8574 115.4457 15.73255175  3079,6727.738,91.53,350.6690000000001,348.537,0.0
53576.0,STARLINK-4581,PAYLOAD,2022-09-08 14:00:01,15.73222439,0.000167,53.2152,56.7439,39.4595,311.0247,0.00016009,0.00021928,0.0,0 STARLINK-4581,1 53576U 22101BB  22251.58334491  .00021928  00000-0  16009-3 0  9992,2 53576  53.2152  56.7439 0001670  39.4595 311.0247 15.73222439  1309,6727.831,91.532,350.82,348.5730000000001,0.0
53576.0,STARLINK-4581,PAYLOAD,2022-09-08 22:00:00,15.73248205,0.0001851999999999,53.2146,55.0955,32.8061,46.6391,-0.00020454,-0.00029288,0.0,0 STARLINK-4581,1 53576U 22101BB  22251.91667824 -.00029288  00000-0 -20454-3 0  9996,2 53576  53.2146  55.0955 0001852  32.8061  46.6391 15.73248205  3193,6727.7580000000025,91.53,350.869,348.37699999999984,0.0
53576.0,STARLINK-4581,PAYLOAD,2022-09-09 14:00:01,15.73222666,0.0001661,53.215,51.7949,36.8139,220.5068,-0.00024129,-0.0003438,0.0,0 STARLINK-4581,1 53576U 22101BB  22252.58334491 -.00034380  00000-0 -24129-3 0  9993,2 53576  53.2150  51.7949 0001661  36.8139 220.5068 15.73222666  1300,6727.831,91.532,350.81300000000016,348.57800000000015,0.0
53576.0,STARLINK-4581,PAYLOAD,2022-09-09 22:00:00,15.73157691,0.0001894,53.2153,50.1462,28.3035,317.9691,0.0004611,0.00064475,0.0,0 STARLINK-4581,1 53576U 22101BB  22252.91667824  .00064475  00000-0  46110-3 0  9999,2 53576  53.2153  50.1462 0001894  28.3035 317.9691 15.73157691  1303,6728.016,91.536,351.155,348.607,0.0
53576.0,STARLINK-4581,PAYLOAD,2022-09-10 04:00:00,15.73221032,0.0001753,53.2154,48.9077,30.9811,291.9893,-0.0003733,-0.00052733,0.0,0 STARLINK-4581,1 53576U 22101BB  22253.16667824 -.00052733  00000-0 -37330-3 0  9997,2 53576  53.2154  48.9077 0001753  30.9811 291.9893 15.73221032  3382,6727.835,91.532,350.88,348.521,0.0
53576.0,STARLINK-4581,PAYLOAD,2022-09-10 12:00:00,15.73204523,0.000184,53.2155,47.2579,35.17,16.7221,0.00020364,0.00028061,0.0,0 STARLINK-4581,1 53576U 22101BB  22253.50001157  .00028061  00000-0  20364-3 0  9990,2 53576  53.2155  47.2579 0001840  35.1700  16.7221 15.73204523  3444,6727.882,91.533,350.985,348.509,0.0
53576.0,STARLINK-4581,PAYLOAD,2022-09-10 14:00:01,15.73218596,0.0001878,53.2154,46.8461,33.8787,130.2284,-0.00022628,-0.00032283,0.0,0 STARLINK-4581,1 53576U 22101BB  22253.58334491 -.00032283  00000-0 -22628-3 0  9996,2 53576  53.2154  46.8461 0001878  33.8787 130.2284 15.73218596  1308,6727.842,91.532,350.971,348.444,0.0
53576.0,STARLINK-4581,PAYLOAD,2022-09-10 20:00:01,15.73178935,0.0002026999999999,53.2156,45.61,27.2864,113.5356,3.2134e-05,3.887e-05,0.0,0 STARLINK-4581,1 53576U 22101BB  22253.83334491  .00003887  00000-0  32134-4 0  9994,2 53576  53.2156  45.6100 0002027  27.2864 113.5356 15.73178935  3495,6727.955,91.534,351.184,348.456,0.0
